LEMUR-1                 
1 40044U 14033AL  26194.36528422  .00000822  00000+0  10006-3 0  9998
2 40044  97.7905 343.5942 0047928 353.9806   6.0828 14.85333807649358
LEMUR-2-GREENBERG       
1 42837U 17042N   26194.47946093  .00009474  00000+0  30775-3 0  9990
2 42837  97.3826  14.9999 0007161 266.6725  93.3697 15.32118737492416
LEMUR-2-ANDIS           
1 42838U 17042P   26194.31617300  .00013773  00000+0  39626-3 0  9991
2 42838  97.3675  15.1146 0007134 265.7451  94.2978 15.35874603492463
LEMUR-2-MONSON          
1 42839U 17042Q   26194.80759331  .00007810  00000+0  28219-3 0  9998
2 42839  97.4086  15.2572 0005239 251.8262 108.2408 15.28729745492232
LEMUR-2-FURIAUS         
1 42840U 17042R   26193.44556340  .00010642  00000+0  35675-3 0  9995
2 42840  97.3775  11.8672 0006239 340.6601  19.4403 15.31072029492076
LEMUR-2-PETERG          
1 42841U 17042S   26194.83746902  .00011482  00000+0  34038-3 0  9990
2 42841  97.3987  19.9327 0003215 225.7351 134.3628 15.34997111492521
LEMUR-2-DEMBITZ         
1 42842U 17042T   26194.44561221  .00010407  00000+0  34897-3 0  9996
2 42842  97.3823  15.9038 0005025 282.7379  77.3301 15.31075730492367
LEMUR-2-ZACHARY         
1 42845U 17042W   26194.50547504  .00031484  00000+0  51241-3 0  9994
2 42845  97.3570  26.7449 0002475 255.1233 104.9746 15.52606320493284
LEMUR-2-AMANDA-SVANTE   
1 48269U 21034B   26194.75691213  .00019470  00000+0  55866-3 0  9998
2 48269  97.5758 273.7724 0004577 146.6143 213.5390 15.35901583285134
LEMUR-2-SPECIAL-K       
1 48273U 21034F   26194.80820394  .00170160  00000+0  11652-2 0  9991
2 48273  97.5644 283.7792 0006213 216.1117 143.9728 15.74229239285867
LEMUR-2-EMBRIONOVIS     
1 56970U 23084AQ  26194.35851156  .00008792  00000+0  23578-3 0  9993
2 56970  97.6315 339.5788 0008139 213.3126 146.7608 15.38198824171709
LEMUR-2-DEVERILL-M-T    
1 57391U 23100F   26194.67252656  .00016198  00000+0  39466-3 0  9997
2 57391  99.4451 241.1062 0004681 303.6745  56.4048 15.41043213165320
LEMUR-2-BASS            
1 58259U 23174D   26194.78994027  .00010596  00000+0  23445-3 0  9995
2 58259  97.3852 279.8888 0007761  82.6204 277.5926 15.43963525149463
LEMUR-2-JK0903EM1407    
1 58336U 23174CJ  26194.76586292  .00016696  00000+0  26895-3 0  9999
2 58336  97.3927 286.0103 0003751  38.6610 321.4910 15.53017919149852
LEMUR-2-MJR092620       
1 58340U 23174CN  26194.83655743  .00011620  00000+0  24131-3 0  9993
2 58340  97.3983 285.3735 0005431  34.6168 325.5433 15.45830894149764
LEMUR-2-NIMBUS2000      
1 58899U 24022A   26194.51537385  .00013841  00000+0  33633-3 0  9995
2 58899  97.4084  44.8635 0008918  34.2151 325.9668 15.41070086136321
